NORAD_CAT_ID,OBJECT_NAME,OBJECT_TYPE,EPOCH,MEAN_MOTION,ECCENTRICITY,INCLINATION,RA_OF_ASC_NODE,ARG_OF_PERICENTER,MEAN_ANOMALY,BSTAR,MEAN_MOTION_DOT,MEAN_MOTION_DDOT,TLE_LINE0,TLE_LINE1,TLE_LINE2,SEMIMAJOR_AXIS,PERIOD,APOGEE,PERIGEE,DECAYED
51133.0,STARLINK-3356,PAYLOAD,2023-12-21 05:04:19,15.08846855,0.0001859,53.2188,333.0162,60.4902,299.6275,0.00032755,4.93e-05,0.0,0 STARLINK-3356,1 51133U 22005AF  23355.21133350  .00004930  00000-0  32755-3 0  9999,2 51133  53.2188 333.0162 0001859  60.4902 299.6275 15.08846855106528,6917.859,95.437,541.01,538.438,0.0
51133.0,STARLINK-3356,PAYLOAD,2023-12-22 03:19:43,15.08840227,0.0001255,53.2173,328.8546,107.3672,252.7457,-1.3392e-05,-5.01e-06,0.0,0 STARLINK-3356,1 51133U 22005AF  23356.13869514 -.00000501  00000-0 -13392-4 0  9998,2 51133  53.2173 328.8546 0001255 107.3672 252.7457 15.08840227107783,6917.88,95.438,540.613,538.877,0.0
51133.0,STARLINK-3356,PAYLOAD,2023-12-22 04:55:06,15.08840037,0.0001213,53.2173,328.5571,105.5673,254.5453,-1.2226e-05,-4.82e-06,0.0,0 STARLINK-3356,1 51133U 22005AF  23356.20493545 -.00000482  00000-0 -12226-4 0  9996,2 51133  53.2173 328.5571 0001213 105.5673 254.5453 15.08840037106675,6917.88,95.438,540.584,538.906,0.0
51133.0,STARLINK-3356,PAYLOAD,2023-12-23 07:56:39,15.0885365,0.0001289,53.2172,323.4926,108.3614,251.7518,9.1517e-05,1.169e-05,0.0,0 STARLINK-3356,1 51133U 22005AF  23357.33100889  .00001169  00000-0  91517-4 0  9998,2 51133  53.2172 323.4926 0001289 108.3614 251.7518 15.08853650107960,6917.839,95.437,540.595,538.812,0.0
51133.0,STARLINK-3356,PAYLOAD,2023-12-23 22:15:08,15.0883666,0.0001153,53.2168,320.8117,127.2973,232.8124,0.00015431,2.169e-05,0.0,0 STARLINK-3356,1 51133U 22005AF  23357.92717810  .00002169  00000-0  15431-3 0  9992,2 51133  53.2168 320.8117 0001153 127.2973 232.8124 15.08836660106937,6917.891,95.438,540.553,538.958,0.0
51133.0,STARLINK-3356,PAYLOAD,2023-12-24 03:01:17,15.08842535,0.0001397,53.2172,319.926,104.8454,255.2693,0.00025923,3.84e-05,0.0,0 STARLINK-3356,1 51133U 22005AF  23358.12589657  .00003840  00000-0  25923-3 0  9995,2 51133  53.2172 319.9260 0001397 104.8454 255.2693 15.08842535108081,6917.873,95.437,540.704,538.771,0.0
51133.0,STARLINK-3356,PAYLOAD,2023-12-24 07:47:26,15.08849543,0.0001548,53.2172,319.0316,118.5681,241.5467,0.00029524,4.415e-05,0.0,0 STARLINK-3356,1 51133U 22005AF  23358.32461298  .00004415  00000-0  29524-3 0  9997,2 51133  53.2172 319.0316 0001548 118.5681 241.5467 15.08849543106997,6917.851,95.437,540.787,538.645,0.0
51133.0,STARLINK-3356,PAYLOAD,2023-12-24 22:05:54,15.08839368,0.0001299,53.2172,316.3515,112.1547,247.9583,-4.8031e-05,-1.052e-05,0.0,0 STARLINK-3356,1 51133U 22005AF  23358.92077377 -.00001052  00000-0 -48031-4 0  9995,2 51133  53.2172 316.3515 0001299 112.1547 247.9583 15.08839368107086,6917.882,95.438,540.646,538.849,0.0
51133.0,STARLINK-3356,PAYLOAD,2023-12-25 02:52:04,15.08841464,0.0001712,53.2184,315.4617,109.2238,250.894,4.3811e-05,4.09e-06,0.0,0 STARLINK-3356,1 51133U 22005AF  23359.11949647  .00000409  00000-0  43811-4 0  9999,2 51133  53.2184 315.4617 0001712 109.2238 250.8940 15.08841464108234,6917.876,95.437,540.925,538.557,0.0
51133.0,STARLINK-3356,PAYLOAD,2023-12-25 06:02:50,15.08845692,0.0001635,53.2178,314.8647,110.4712,249.6456,0.00013611,1.879e-05,0.0,0 STARLINK-3356,1 51133U 22005AF  23359.25197478  .00001879  00000-0  13611-3 0  9997,2 51133  53.2178 314.8647 0001635 110.4712 249.6456 15.08845692107131,6917.863,95.437,540.859,538.597,0.0
51133.0,STARLINK-3356,PAYLOAD,2023-12-26 02:42:52,15.08835534,0.0001774,53.219,311.0105,90.1333,269.9863,1.2532e-05,-8.9e-07,0.0,0 STARLINK-3356,1 51133U 22005AF  23360.11310343 -.00000089  00000-0  12532-4 0  9997,2 51133  53.2190 311.0105 0001774  90.1333 269.9863 15.08835534108389,6917.894,95.438,540.986,538.532,0.0
51133.0,STARLINK-3356,PAYLOAD,2023-12-26 05:53:38,15.08842214,0.0001555,53.2179,310.4109,97.7677,262.3492,0.00016241,2.298e-05,0.0,0 STARLINK-3356,1 51133U 22005AF  23360.24557994  .00002298  00000-0  16241-3 0  9999,2 51133  53.2179 310.4109 0001555  97.7677 262.3492 15.08842214107280,6917.874,95.437,540.814,538.663,0.0
51133.0,STARLINK-3356,PAYLOAD,2023-12-27 05:44:24,15.08857744,0.0001708,53.2181,305.9457,94.0536,266.0651,0.00048686,7.473e-05,0.0,0 STARLINK-3356,1 51133U 22005AF  23361.23917813  .00007473  00000-0  48686-3 0  9997,2 51133  53.2181 305.9457 0001708  94.0536 266.0651 15.08857744107431,6917.826,95.436,540.873,538.51,0.0
51133.0,STARLINK-3356,PAYLOAD,2023-12-27 20:02:53,15.08837221,0.0001522,53.218,303.2759,93.6597,266.4569,-8.5111e-06,-4.23e-06,0.0,0 STARLINK-3356,1 51133U 22005AF  23361.83534415 -.00000423  00000-0 -85111-5 0  9992,2 51133  53.2180 303.2759 0001522  93.6597 266.4569 15.08837221108646,6917.889,95.438,540.807,538.701,0.0
51133.0,STARLINK-3356,PAYLOAD,2023-12-28 05:35:12,15.08844822,0.000155,53.2174,301.492,87.7344,272.3826,0.00015989,2.258e-05,0.0,0 STARLINK-3356,1 51133U 22005AF  23362.23278242  .00002258  00000-0  15989-3 0  9990,2 51133  53.2174 301.4920 0001550  87.7344 272.3826 15.08844822107583,6917.866,95.437,540.803,538.658,0.0
51133.0,STARLINK-3356,PAYLOAD,2023-12-29 05:25:59,15.08847401,0.0001587,53.2179,297.0269,92.4438,267.6736,0.00022068,3.227e-05,0.0,0 STARLINK-3356,1 51133U 22005AF  23363.22638152  .00003227  00000-0  22068-3 0  9993,2 51133  53.2179 297.0269 0001587  92.4438 267.6736 15.08847401107731,6917.858,95.437,540.821,538.625,0.0
51133.0,STARLINK-3356,PAYLOAD,2023-12-30 00:30:37,15.088424,0.0001676,53.2169,293.4606,100.4872,259.6309,8.2959e-05,1.033e-05,0.0,0 STARLINK-3356,1 51133U 22005AF  23364.02126351  .00001033  00000-0  82959-4 0  9994,2 51133  53.2169 293.4606 0001676 100.4872 259.6309 15.08842400108974,6917.873,95.437,540.897,538.579,0.0
51133.0,STARLINK-3356,PAYLOAD,2023-12-30 05:16:46,15.08842934,0.0001982,53.2184,292.5657,117.8608,242.2585,6.1173e-05,6.86e-06,0.0,0 STARLINK-3356,1 51133U 22005AF  23364.21998237  .00000686  00000-0  61173-4 0  9993,2 51133  53.2184 292.5657 0001982 117.8608 242.2585 15.08842934107881,6917.871,95.437,541.108,538.365,0.0
51133.0,STARLINK-3356,PAYLOAD,2023-12-30 22:46:01,15.08839105,0.0001949,53.2181,289.2935,114.3474,245.7722,4.3934e-05,4.11e-06,0.0,0 STARLINK-3356,1 51133U 22005AF  23364.94862429  .00000411  00000-0  43934-4 0  9997,2 51133  53.2181 289.2935 0001949 114.3474 245.7722 15.08839105107995,6917.883,95.438,541.096,538.4,0.0
51133.0,STARLINK-3356,PAYLOAD,2023-12-31 05:07:33,15.08837045,0.000192,53.2186,288.1051,114.254,245.8653,2.2147e-05,6.4e-07,0.0,0 STARLINK-3356,1 51133U 22005AF  23365.21358747  .00000064  00000-0  22147-4 0  9998,2 51133  53.2186 288.1051 0001920 114.2540 245.8653 15.08837045109154,6917.889,95.438,541.083,538.426,0.0
51133.0,STARLINK-3356,PAYLOAD,2023-12-31 22:36:48,15.08837395,0.0001845,53.2184,284.835,114.9008,245.2176,5.347e-05,5.63e-06,0.0,0 STARLINK-3356,1 51133U 22005AF  23365.94222685  .00000563  00000-0  53470-4 0  9996,2 51133  53.2184 284.8350 0001845 114.9008 245.2176 15.08837395108149,6917.888,95.438,541.03,538.477,0.0
51133.0,STARLINK-3356,PAYLOAD,2024-01-01 01:47:34,15.0883871,0.0001583,53.218,284.2415,103.5348,256.5821,2.8862e-05,1.71e-06,0.0,0 STARLINK-3356,1 51133U 22005AF  24001.07470757  .00000171  00000-0  28862-4 0  9995,2 51133  53.2180 284.2415 0001583 103.5348 256.5821 15.08838710108167,6917.884,95.438,540.844,538.654,0.0
51133.0,STARLINK-3356,PAYLOAD,2024-01-01 17:41:26,15.08830525,0.0001541,53.2179,281.2686,103.005,257.1114,0.00017482,2.495e-05,0.0,0 STARLINK-3356,1 51133U 22005AF  24001.73711165  .00002495  00000-0  17482-3 0  9995,2 51133  53.2179 281.2686 0001541 103.0050 257.1114 15.08830525109384,6917.909,95.438,540.84,538.708,0.0
51133.0,STARLINK-3356,PAYLOAD,2024-01-01 22:27:35,15.08843895,0.0001449,53.2176,280.3812,99.6907,260.4248,7.5673e-05,9.17e-06,0.0,0 STARLINK-3356,1 51133U 22005AF  24001.93582487  .00000917  00000-0  75673-4 0  9994,2 51133  53.2176 280.3812 0001449  99.6907 260.4248 15.08843895108298,6917.868,95.437,540.736,538.731,0.0
51133.0,STARLINK-3356,PAYLOAD,2024-01-02 03:13:44,15.08850285,0.0001601,53.218,279.4885,107.0038,253.1129,0.00015916,2.247e-05,0.0,0 STARLINK-3356,1 51133U 22005AF  24002.13453868  .00002247  00000-0  15916-3 0  9998,2 51133  53.2180 279.4885 0001601 107.0038 253.1129 15.08850285109447,6917.849,95.437,540.821,538.606,0.0
51133.0,STARLINK-3356,PAYLOAD,2024-01-02 22:18:22,15.088412,0.0001393,53.2173,275.919,86.4925,273.6227,3.5578e-05,2.78e-06,0.0,0 STARLINK-3356,1 51133U 22005AF  24002.92942719  .00000278  00000-0  35578-4 0  9992,2 51133  53.2173 275.9190 0001393  86.4925 273.6227 15.08841200108444,6917.877,95.437,540.705,538.778,0.0
51133.0,STARLINK-3356,PAYLOAD,2024-01-03 03:04:31,15.08844663,0.0001418,53.2168,275.0275,98.211,261.9043,5.4067e-05,5.73e-06,0.0,0 STARLINK-3356,1 51133U 22005AF  24003.12814330  .00000573  00000-0  54067-4 0  9994,2 51133  53.2168 275.0275 0001418  98.2110 261.9043 15.08844663109597,6917.866,95.437,540.712,538.75,0.0
51133.0,STARLINK-3356,PAYLOAD,2024-01-03 04:39:54,15.08844772,0.0001388,53.2167,274.7299,91.8493,268.2658,5.0457e-05,5.15e-06,0.0,0 STARLINK-3356,1 51133U 22005AF  24003.19438311  .00000515  00000-0  50457-4 0  9997,2 51133  53.2167 274.7299 0001388  91.8493 268.2658 15.08844772108487,6917.866,95.437,540.691,538.771,0.0
51133.0,STARLINK-3356,PAYLOAD,2024-01-03 22:09:09,15.0884058,0.0001413,53.2173,271.4576,98.6881,261.4271,-5.6849e-05,-1.193e-05,0.0,0 STARLINK-3356,1 51133U 22005AF  24003.92302918 -.00001193  00000-0 -56849-4 0  9997,2 51133  53.2173 271.4576 0001413  98.6881 261.4271 15.08840580108592,6917.879,95.438,540.721,538.766,0.0
51133.0,STARLINK-3356,PAYLOAD,2024-01-04 01:19:55,15.08845105,0.0001447,53.2169,270.8629,99.6197,260.4959,-1.0184e-05,-4.5e-06,0.0,0 STARLINK-3356,1 51133U 22005AF  24004.05550475 -.00000450  00000-0 -10184-4 0  9992,2 51133  53.2169 270.8629 0001447  99.6197 260.4959 15.08845105108610,6917.865,95.437,540.731,538.729,0.0
